[{"OBJECT_NAME":"STARLINK-34605","OBJECT_ID":"2025-139P","EPOCH":"2026-03-09T12:07:50.499840","MEAN_MOTION":15.30141117,"ECCENTRICITY":8.127e-5,"INCLINATION":53.1583,"RA_OF_ASC_NODE":117.4173,"ARG_OF_PERICENTER":70.4883,"MEAN_ANOMALY":289.6206,"EPHEMERIS_TYPE":0,"CLASSIFICATION_TYPE":"U","NORAD_CAT_ID":64677,"ELEMENT_SET_NO":999,"REV_AT_EPOCH":4040,"BSTAR":0.00031299371,"MEAN_MOTION_DOT":8.905e-5,"MEAN_MOTION_DDOT":0},{"OBJECT_NAME":"OBJECT N","OBJECT_ID":"2019-093N","EPOCH":"2026-03-09T21:41:56.087232","MEAN_MOTION":15.29897693,"ECCENTRICITY":0.0006278,"INCLINATION":98.0505,"RA_OF_ASC_NODE":226.9456,"ARG_OF_PERICENTER":33.3806,"MEAN_ANOMALY":326.7828,"EPHEMERIS_TYPE":0,"CLASSIFICATION_TYPE":"U","NORAD_CAT_ID":44891,"ELEMENT_SET_NO":999,"REV_AT_EPOCH":33957,"BSTAR":0.0010567776,"MEAN_MOTION_DOT":0.00030617,"MEAN_MOTION_DDOT":0}]
